TDRS 3                  
1 19548U 88091B   22070.10301094 -.00000295  00000+0  00000+0 0  9997
2 19548  13.7847 352.0942 0040046 332.1501 192.7390  1.00276719109737
FLTSATCOM 8 (USA 46)    
1 20253U 89077A   22069.85105355 -.00000077  00000+0  00000+0 0  9997
2 20253  12.8877   0.8944 0004179  64.8920 120.9447  1.00273674244975
SKYNET 4C               
1 20776U 90079A   22070.18889748  .00000129  00000+0  00000+0 0  9991
2 20776  13.8336   0.8006 0003489 336.6113 292.7951  1.00271275115309
TDRS 5                  
1 21639U 91054B   22070.15082984  .00000087  00000+0  00000+0 0  9991
2 21639  14.2446   5.4248 0027680 354.9929  54.9964  1.00275687112075
TDRS 6                  
1 22314U 93003B   22070.38490253 -.00000293  00000+0  00000+0 0  9995
2 22314  14.1247   8.6526 0008790  88.2829 164.5614  1.00265648106748
UFO 2 (USA 95)          
1 22787U 93056A   22070.18297403  .00000128  00000+0  00000+0 0  9993
2 22787  11.4436  11.6768 0003819 329.4061 282.3835  1.00277587103026
USA 99 (MILSTAR-1 1)    
1 22988U 94009A   22069.89056338 -.00000196  00000+0  00000+0 0  9997
2 22988  15.1884  44.1570 0002619 279.8853  75.1141  1.00273090 16007
USA 107 (DSP 17)        
1 23435U 94084A   22070.38190779 -.00000162  00000+0  00000+0 0  9995
2 23435  14.5864   6.5488 0000329  29.3574 173.9358  1.00269729 16067
UFO 4 (USA 108)         
1 23467U 95003A   22069.65567123 -.00000022  00000+0  00000+0 0  9996
2 23467   9.8411  18.2281 0003327  19.5543 178.9154  1.00269208 99316
AMSC 1                  
1 23553U 95019A   22069.52253433 -.00000092  00000+0  00000+0 0  9998
2 23553  11.8551  26.8686 0007295 330.5160 251.3711  1.00272314 98522
TDRS 7                  
1 23613U 95035B   22069.62276913 -.00000198  00000+0  00000+0 0  9999
2 23613  14.0144 359.3422 0029056  42.9859  74.8534  1.00269499 97612
USA 113                 
1 23628U 95038A   22069.85733326 -.00000338  00000+0  00000+0 0  9995
2 23628  11.9920  25.6830 0001904 286.1157 269.1536  1.00270160 15974
USA 115 (MILSTAR-1 2)   
1 23712U 95060A   22069.64269616 -.00000017  00000+0  00000+0 0  9991
2 23712  13.4871  15.0221 0002815 321.8670 302.7777  1.00270631 17242
INMARSAT 3-F1           
1 23839U 96020A   22069.63046517  .00000135  00000+0  00000+0 0  9990
2 23839   7.3371  58.7350 0005066 323.6918  58.3386  0.99983108 94660
INMARSAT 3-F2           
1 24307U 96053A   22069.46345101 -.00000239  00000+0  00000+0 0  9995
2 24307   6.2945  67.7090 0007623 321.5652 233.8092  0.99985790 93325
AMC-1 (GE-1)            
1 24315U 96054A   22069.65596609  .00000063  00000+0  00000+0 0  9991
2 24315   5.3866  73.9730 0003501 265.6709 293.8894  1.00271022 30683
INMARSAT 3-F3           
1 24674U 96070A   22069.79871308 -.00000089  00000+0  00000+0 0  9993
2 24674   6.9233  62.3983 0005266 305.2105 257.8548  1.00006858 92316
GALAXY 25 (G-25)        
1 24812U 97026A   22070.06368847 -.00000006  00000+0  00000+0 0  9999
2 24812   3.4472  84.6236 0003096 274.6648 258.4398  1.00271538 90738
INTELSAT 5 (IS-5)       
1 24916U 97046A   22069.66944819  .00000111  00000+0  00000+0 0  9995
2 24916   7.0185  61.7273 0000977 225.8868 319.5574  1.00139411 89981
AMC-3 (GE-3)            
1 24936U 97050A   22069.82234920 -.00000262  00000+0  00000+0 0  9993
2 24936   4.3037  80.3938 0003246 269.2581  42.8414  1.00271674 36798
USA 134                 
1 25019U 97065A   22070.47149003 -.00000059  00000+0  00000+0 0  9996
2 25019  10.9409  32.0954 0006328 331.0819 223.2731  1.00274653 15979
ASTRA 1G                
1 25071U 97076A   22069.77511340  .00000114  00000+0  00000+0 0  9995
2 25071   6.0199  69.0269 0004002 273.5362 124.2870  1.00275011 88870
INMARSAT 3-F5           
1 25153U 98006B   22070.40000439 -.00000291  00000+0  00000+0 0  9991
2 25153   6.1819  66.4842 0005089 287.8143 264.7392  1.00270394 88250
UFO 8 (USA 138)         
1 25258U 98016A   22070.28392872 -.00000024  00000+0  00000+0 0  9993
2 25258   9.3212  30.2897 0002898 316.7727  95.8885  1.00267506 87948
ASTRA 2A                
1 25462U 98050A   22069.84224453  .00000146  00000+0  00000+0 0  9991
2 25462   3.1581  86.6132 0002387 261.0131 152.0357  1.00275344 30708
SKYNET 4E               
1 25639U 99009B   22070.07837112 -.00000032  00000+0  00000+0 0  9996
2 25639  11.1987  17.4488 0002815 327.2252 210.9924  1.00272537 84382
ABS-7                   
1 25894U 99046A   22070.05287632 -.00000028  00000+0  00000+0 0  9999
2 25894   2.5148  88.7018 0003891 310.1441 153.1518  0.99975606 81506
ABS-6                   
1 25924U 99053A   22069.81369015 -.00000122  00000+0  00000+0 0  9994
2 25924   0.0384 310.1741 0001803  38.0803 272.1564  1.00272149 82216
AMC-4 (GE-4)            
1 25954U 99060A   22070.50669968  .00000085  00000+0  00000+0 0  9990
2 25954   1.2728  92.9775 0003183 256.5387 227.1193  1.00270970 81850
UFO 10 (USA 146)        
1 25967U 99063A   22069.68863970 -.00000187  00000+0  00000+0 0  9997
2 25967   8.5921  33.7568 0002757 345.3476  14.3160  1.00270001 81703
GALAXY 11 (G-11)        
1 26038U 99071A   22069.60281703 -.00000165  00000+0  00000+0 0  9992
2 26038   2.7564  89.0415 0000802 163.3492  39.7563  1.00272661 81445
USA 148                 
1 26052U 00001A   22069.61382578  .00000040  00000+0  00000+0 0  9997
2 26052   9.3836  42.9900 0002060 276.9604 249.5744  1.00273253 15983
ASIASTAR                
1 26107U 00016A   22070.00115598 -.00000335  00000+0  00000+0 0  9993
2 26107   5.4503  72.7618 0004487 278.6799 282.5997  1.00271195 80519
USA 149 (DSP 20)        
1 26356U 00024A   22070.09072898  .00000099  00000+0  00000+0 0  9998
2 26356  12.0108  22.1464 0001394 338.4105  35.5572  1.00285042 15977
TDRS 8                  
1 26388U 00034A   22069.92623560 -.00000234  00000+0  00000+0 0  9994
2 26388  10.2129  43.2247 0023003 332.5699 215.5033  1.00275760 79532
INTELSAT 9 (IS-9)       
1 26451U 00043A   22070.40078935 -.00000289  00000+0  00000+0 0  9990
2 26451   7.0058  61.8972 0002626 275.7976 285.6100  1.00275290 79219
NSS-11 (AAP-1)          
1 26554U 00059A   22069.80002135  .00000023  00000+0  00000+0 0  9997
2 26554   0.0408 321.4108 0002455  29.9476 281.0645  1.00273067 25658
USA 153                 
1 26575U 00065A   22069.82480179 -.00000325  00000+0  00000+0 0  9993
2 26575   8.9344  46.3184 0001757 279.8606 273.6062  1.00269224 17290
AMC-6 (GE-6)            
1 26580U 00067A   22069.64905557  .00000102  00000+0  00000+0 0  9995
2 26580   0.0436 306.7040 0002732  40.8051 275.4205  1.00271473 78283
INTELSAT 1R (IS-1R)     
1 26608U 00072A   22069.81369015 -.00000141  00000+0  00000+0 0  9998
2 26608   4.2091  80.8735 0002018 349.8841 187.7501  1.00272298 25680
ANIK F1                 
1 26624U 00076A   22069.67137050 -.00000064  00000+0  00000+0 0  9990
2 26624   1.1861  93.8369 0005818 297.3924 269.5374  1.00271818 27503
ASTRA 2D                
1 26638U 00081A   22070.05671392  .00000128  00000+0  00000+0 0  9997
2 26638   7.0861  60.9568 0002423 275.1749 236.6545  1.00269393 77759
AMC-8 (GE-8)            
1 26639U 00081B   22069.65247902  .00000085  00000+0  00000+0 0  9990
2 26639   2.1988  89.6427 0002779 256.4310 282.0921  1.00270713 77692
USA 157 (MILSTAR-2 2)   
1 26715U 01009A   22069.55930287  .00000015  00000+0  00000+0 0  9993
2 26715   9.9201  27.6142 0002197 313.0829 264.5664  1.00270935 16008
EUTELSAT 133 WEST A     
1 26719U 01011A   22070.51280387  .00000075  00000+0  00000+0 0  9993
2 26719   3.4733  83.6912 0002826 283.9748 213.2340  1.00270429 76941
INTELSAT 10 (IS-10)     
1 26766U 01019A   22069.80037022  .00000032  00000+0  00000+0 0  9992
2 26766   5.3453  74.1937 0003061 276.0783 284.1005  1.00270502 29988
INTELSAT 901 (IS-901)   
1 26824U 01024A   22070.40532470 -.00000205  00000+0  00000+0 0  9991
2 26824   0.0151 230.3302 0000873 132.8310 284.2754  1.00270259 75954
ASTRA 2C                
1 26853U 01025A   22070.10268052 -.00000261  00000+0  00000+0 0  9995
2 26853   4.3299  80.1943 0002725 263.5160 149.5093  1.00274075 75949
USA 159 (DSP 21)        
1 26880U 01033A   22069.31936188 -.00000296  00000+0  00000+0 0  9995
2 26880  11.3366  26.3826 0000536 127.2158  80.2701  1.00273773 15973
INTELSAT 902 (IS-902)   
1 26900U 01039A   22069.82671970 -.00000285  00000+0  00000+0 0  9993
2 26900   2.1581  90.0810 0003155 271.2613  54.6407  1.00271389 75054
USA 164 (MILSTAR-2 3)   
1 27168U 02001A   22069.55336433  .00000100  00000+0  00000+0 0  9997
2 27168   9.4051  29.4181 0001919 311.2225  45.6859  1.00271619 16007
ECHOSTAR 7              
1 27378U 02006A   22070.51805241  .00000054  00000+0  00000+0 0  9999
2 27378   0.0040 168.3291 0004296 206.5137 218.8099  0.99956777 73431
INTELSAT 904 (IS-904)   
1 27380U 02007A   22070.04616052 -.00000216  00000+0  00000+0 0  9992
2 27380   2.9910  86.9762 0003123 261.2213 167.5936  1.00271824 73458
TDRS 9                  
1 27389U 02011A   22069.89605812 -.00000288  00000+0  00000+0 0  9998
2 27389   8.8114  61.7060 0028726 296.6301  70.5090  1.00268975 74803
ASTRA 3A                
1 27400U 02015B   22070.39355024 -.00000205  00000+0  00000+0 0  9999
2 27400   7.1923  59.8049 0001925 268.9855 255.1492  1.00272759 73081
NSS-7                   
1 27414U 02019A   22069.83273774 -.00000160  00000+0  00000+0 0  9996
2 27414   5.6701  72.1039 0002607 283.0423  93.1033  1.00271898 72923
DIRECTV 5 (TEMPO 1)     
1 27426U 02023A   22069.57113174 -.00000058  00000+0  00000+0 0  9998
2 27426   0.8788  94.3751 0003541 261.4451 267.8656  1.00272574 72668
INTELSAT 905 (IS-905)   
1 27438U 02027A   22070.04711993 -.00000187  00000+0  00000+0 0  9995
2 27438   2.8133  87.7342 0002663 262.3822 171.0100  1.00271330 72338
GALAXY 3C (G-3C)        
1 27445U 02030A   22070.39189310 -.00000154  00000+0  00000+0 0  9991
2 27445   0.0389 337.7279 0002116 351.8070 245.5202  1.00274897 72328
